start=new Date('2022-09-10T00:00:00.000Z').valueOf();
sats=[{"PERIAPSIS":"574.486","CLASSIFICATION_TYPE":"U","EPOCH":"2022-09-09T08:49:28.416864","OBJECT_ID":"2021-082BB","LAUNCH_DATE":"2021-09-14","EPHEMERIS_TYPE":"0","INCLINATION":"70.0006","REF_FRAME":"TEME","SITE":"AFWTR","FILE":"3564914","CENTER_NAME":"EARTH","MEAN_ANOMALY":"106.0246","GP_ID":"212130403","MEAN_MOTION_DDOT":"0.0000000000000","COUNTRY_CODE":"US","ECCENTRICITY":"0.00035860","OBJECT_TYPE":"PAYLOAD","OBJECT_NAME":"STARLINK-3043","ELEMENT_SET_NO":"999","BSTAR":"0.00024539000000","APOAPSIS":"579.474","REV_AT_EPOCH":"5563","SEMIMAJOR_AXIS":"6955.115","NORAD_CAT_ID":"49179","MEAN_MOTION_DOT":"0.00002720","PERIOD":"96.209","TLE_LINE2":"2 49179  70.0006 234.8551 0003586 254.0517 106.0246 14.96739859 55638","TLE_LINE1":"1 49179U 21082BB  22252.36769001  .00002720  00000-0  24539-3 0  9995","RCS_SIZE":"LARGE","RA_OF_ASC_NODE":"234.8551","ARG_OF_PERICENTER":"254.0517","TIME_SYSTEM":"UTC","MEAN_MOTION":"14.96739859","MEAN_ELEMENT_THEORY":"SGP4","DECAY_DATE":null},{"EPOCH":"2022-09-09T10:41:21.988032","PERIAPSIS":"569.983","CLASSIFICATION_TYPE":"U","LAUNCH_DATE":"2021-09-14","EPHEMERIS_TYPE":"0","INCLINATION":"69.9995","SITE":"AFWTR","REF_FRAME":"TEME","OBJECT_ID":"2021-082BC","MEAN_ANOMALY":"90.2017","FILE":"3564914","CENTER_NAME":"EARTH","MEAN_MOTION_DDOT":"0.0000000000000","ECCENTRICITY":"0.00029760","COUNTRY_CODE":"US","GP_ID":"212128663","BSTAR":"-0.00010079000000","ELEMENT_SET_NO":"999","OBJECT_TYPE":"PAYLOAD","OBJECT_NAME":"STARLINK-3050","APOAPSIS":"574.120","TLE_LINE1":"1 49180U 21082BC  22252.44539338 -.00001295  00000-0 -10079-3 0  9996","PERIOD":"96.107","TLE_LINE2":"2 49180  69.9995 254.8260 0002976 269.8801  90.2017 14.98331993 56321","SEMIMAJOR_AXIS":"6950.187","REV_AT_EPOCH":"5632","MEAN_MOTION_DOT":"-0.00001295","NORAD_CAT_ID":"49180","MEAN_MOTION":"14.98331993","DECAY_DATE":null,"MEAN_ELEMENT_THEORY":"SGP4","ARG_OF_PERICENTER":"269.8801","RA_OF_ASC_NODE":"254.8260","RCS_SIZE":"LARGE","TIME_SYSTEM":"UTC"},{"DECAY_DATE":null,"MEAN_ELEMENT_THEORY":"SGP4","MEAN_MOTION":"14.98325731","TIME_SYSTEM":"UTC","RA_OF_ASC_NODE":"274.7468","RCS_SIZE":"LARGE","ARG_OF_PERICENTER":"260.0874","TLE_LINE2":"2 49181  69.9985 274.7468 0003311 260.0874  99.9912 14.98325731 55859","PERIOD":"96.107","TLE_LINE1":"1 49181U 21082BD  22252.48221068  .00000074  00000-0  14026-4 0  9998","NORAD_CAT_ID":"49181","MEAN_MOTION_DOT":"0.00000074","SEMIMAJOR_AXIS":"6950.206","REV_AT_EPOCH":"5585","APOAPSIS":"574.372","BSTAR":"0.00001402600000","ELEMENT_SET_NO":"999","OBJECT_NAME":"STARLINK-3059","OBJECT_TYPE":"PAYLOAD","COUNTRY_CODE":"US","ECCENTRICITY":"0.00033110","MEAN_MOTION_DDOT":"0.0000000000000","GP_ID":"212128913","MEAN_ANOMALY":"99.9912","CENTER_NAME":"EARTH","FILE":"3564914","SITE":"AFWTR","REF_FRAME":"TEME","EPHEMERIS_TYPE":"0","LAUNCH_DATE":"2021-09-14","INCLINATION":"69.9985","OBJECT_ID":"2021-082BD","EPOCH":"2022-09-09T11:34:23.002752","CLASSIFICATION_TYPE":"U","PERIAPSIS":"569.770"},{"OBJECT_TYPE":"PAYLOAD","OBJECT_NAME":"STARLINK-3151","BSTAR":"0.00009902600000","ELEMENT_SET_NO":"999","APOAPSIS":"541.234","REV_AT_EPOCH":"4579","SEMIMAJOR_AXIS":"6917.871","MEAN_MOTION_DOT":"0.00001288","NORAD_CAT_ID":"49408","TLE_LINE1":"1 49408U 21104A   22252.33836945  .00001288  00000-0  99026-4 0  9996","TLE_LINE2":"2 49408  53.2149 203.3801 0002165  48.5512 311.5665 15.08843099 45796","PERIOD":"95.437","ARG_OF_PERICENTER":"48.5512","RCS_SIZE":"LARGE","RA_OF_ASC_NODE":"203.3801","TIME_SYSTEM":"UTC","MEAN_MOTION":"15.08843099","DECAY_DATE":null,"MEAN_ELEMENT_THEORY":"SGP4","PERIAPSIS":"538.238","CLASSIFICATION_TYPE":"U","EPOCH":"2022-09-09T08:07:15.120480","OBJECT_ID":"2021-104A","LAUNCH_DATE":"2021-11-13","EPHEMERIS_TYPE":"0","INCLINATION":"53.2149","REF_FRAME":"TEME","SITE":"AFETR","CENTER_NAME":"EARTH","FILE":"3564914","MEAN_ANOMALY":"311.5665","GP_ID":"212128687","MEAN_MOTION_DDOT":"0.0000000000000","ECCENTRICITY":"0.00021650","COUNTRY_CODE":"US"},{"TIME_SYSTEM":"UTC","ARG_OF_PERICENTER":"55.8399","RA_OF_ASC_NODE":"203.6127","RCS_SIZE":"LARGE","MEAN_ELEMENT_THEORY":"SGP4","DECAY_DATE":null,"MEAN_MOTION":"15.08836357","MEAN_MOTION_DOT":"0.00002136","NORAD_CAT_ID":"49409","SEMIMAJOR_AXIS":"6917.892","REV_AT_EPOCH":"4579","TLE_LINE1":"1 49409U 21104B   22252.28685313  .00002136  00000-0  15230-3 0  9999","PERIOD":"95.438","TLE_LINE2":"2 49409  53.2163 203.6127 0002131  55.8399 304.2795 15.08836357 45796","APOAPSIS":"541.231","OBJECT_NAME":"STARLINK-3075","OBJECT_TYPE":"PAYLOAD","BSTAR":"0.00015230000000","ELEMENT_SET_NO":"999","GP_ID":"212128937","ECCENTRICITY":"0.00021310","COUNTRY_CODE":"US","MEAN_MOTION_DDOT":"0.0000000000000","FILE":"3564914","CENTER_NAME":"EARTH","MEAN_ANOMALY":"304.2795","OBJECT_ID":"2021-104B","REF_FRAME":"TEME","SITE":"AFETR","INCLINATION":"53.2163","LAUNCH_DATE":"2021-11-13","EPHEMERIS_TYPE":"0","CLASSIFICATION_TYPE":"U","PERIAPSIS":"538.282","EPOCH":"2022-09-09T06:53:04.110432"},{"GP_ID":"212129689","MEAN_MOTION_DDOT":"0.0000000000000","ECCENTRICITY":"0.00015980","COUNTRY_CODE":"US","CENTER_NAME":"EARTH","FILE":"3564914","MEAN_ANOMALY":"297.2650","OBJECT_ID":"2021-104C","LAUNCH_DATE":"2021-11-13","INCLINATION":"53.2154","EPHEMERIS_TYPE":"0","SITE":"AFETR","REF_FRAME":"TEME","PERIAPSIS":"538.633","CLASSIFICATION_TYPE":"U","EPOCH":"2022-09-09T06:42:28.057824","ARG_OF_PERICENTER":"62.8505","RCS_SIZE":"LARGE","RA_OF_ASC_NODE":"203.6493","TIME_SYSTEM":"UTC","MEAN_MOTION":"15.08842147","DECAY_DATE":null,"MEAN_ELEMENT_THEORY":"SGP4","REV_AT_EPOCH":"4578","SEMIMAJOR_AXIS":"6917.874","MEAN_MOTION_DOT":"-0.00000245","NORAD_CAT_ID":"49410","TLE_LINE1":"1 49410U 21104C   22252.27949141 -.00000245  00000-0  26958-5 0  9993","TLE_LINE2":"2 49410  53.2154 203.6493 0001598  62.8505 297.2650 15.08842147 45781","PERIOD":"95.437","APOAPSIS":"540.844","OBJECT_TYPE":"PAYLOAD","OBJECT_NAME":"STARLINK-3147","BSTAR":"0.00000269580000","ELEMENT_SET_NO":"999"},{"GP_ID":"212129928","ECCENTRICITY":"0.00023050","COUNTRY_CODE":"US","MEAN_MOTION_DDOT":"0.0000000000000","CENTER_NAME":"EARTH","FILE":"3564914","MEAN_ANOMALY":"318.1644","OBJECT_ID":"2021-104D","REF_FRAME":"TEME","SITE":"AFETR","LAUNCH_DATE":"2021-11-13","INCLINATION":"53.2166","EPHEMERIS_TYPE":"0","CLASSIFICATION_TYPE":"U","PERIAPSIS":"538.160","EPOCH":"2022-09-09T06:33:11.684160","TIME_SYSTEM":"UTC","ARG_OF_PERICENTER":"41.9525","RA_OF_ASC_NODE":"193.6770","RCS_SIZE":"LARGE","MEAN_ELEMENT_THEORY":"SGP4","DECAY_DATE":null,"MEAN_MOTION":"15.08836869","MEAN_MOTION_DOT":"0.00001463","NORAD_CAT_ID":"49411","REV_AT_EPOCH":"4592","SEMIMAJOR_AXIS":"6917.890","TLE_LINE1":"1 49411U 21104D   22252.27305190  .00001463  00000-0  11004-3 0  9990","PERIOD":"95.438","TLE_LINE2":"2 49411  53.2166 193.6770 0002305  41.9525 318.1644 15.08836869 45924","APOAPSIS":"541.350","OBJECT_NAME":"STARLINK-3162","OBJECT_TYPE":"PAYLOAD","BSTAR":"0.00011004000000","ELEMENT_SET_NO":"999"},{"MEAN_MOTION_DDOT":"0.0000000000000","COUNTRY_CODE":"US","ECCENTRICITY":"0.00020060","GP_ID":"212129187","MEAN_ANOMALY":"312.0734","FILE":"3564914","CENTER_NAME":"EARTH","LAUNCH_DATE":"2021-11-13","INCLINATION":"53.2159","EPHEMERIS_TYPE":"0","REF_FRAME":"TEME","SITE":"AFETR","OBJECT_ID":"2021-104E","EPOCH":"2022-09-09T03:36:59.470848","PERIAPSIS":"538.361","CLASSIFICATION_TYPE":"U","MEAN_MOTION":"15.08838896","DECAY_DATE":null,"MEAN_ELEMENT_THEORY":"SGP4","RA_OF_ASC_NODE":"204.2238","RCS_SIZE":"LARGE","ARG_OF_PERICENTER":"48.0429","TIME_SYSTEM":"UTC","TLE_LINE2":"2 49412  53.2159 204.2238 0002006  48.0429 312.0734 15.08838896 45772","PERIOD":"95.438","TLE_LINE1":"1 49412U 21104E   22252.15068832  .00001657  00000-0  12222-3 0  9995","SEMIMAJOR_AXIS":"6917.884","REV_AT_EPOCH":"4577","NORAD_CAT_ID":"49412","MEAN_MOTION_DOT":"0.00001657","APOAPSIS":"541.136","BSTAR":"0.00012222000000","ELEMENT_SET_NO":"999","OBJECT_TYPE":"PAYLOAD","OBJECT_NAME":"STARLINK-3144"},{"APOAPSIS":"541.329","ELEMENT_SET_NO":"999","BSTAR":"0.00015100000000","OBJECT_NAME":"STARLINK-3157","OBJECT_TYPE":"PAYLOAD","DECAY_DATE":null,"MEAN_ELEMENT_THEORY":"SGP4","MEAN_MOTION":"15.08834676","TIME_SYSTEM":"UTC","ARG_OF_PERICENTER":"52.9689","RCS_SIZE":"LARGE","RA_OF_ASC_NODE":"194.2836","TLE_LINE1":"1 49413U 21104F   22252.13689130  .00002115  00000-0  15100-3 0  9992","TLE_LINE2":"2 49413  53.2165 194.2836 0002265  52.9689 307.1510 15.08834676 45905","PERIOD":"95.438","MEAN_MOTION_DOT":"0.00002115","NORAD_CAT_ID":"49413","SEMIMAJOR_AXIS":"6917.897","REV_AT_EPOCH":"4590","SITE":"AFETR","REF_FRAME":"TEME","LAUNCH_DATE":"2021-11-13","INCLINATION":"53.2165","EPHEMERIS_TYPE":"0","OBJECT_ID":"2021-104F","EPOCH":"2022-09-09T03:17:07.408320","CLASSIFICATION_TYPE":"U","PERIAPSIS":"538.195","ECCENTRICITY":"0.00022650","COUNTRY_CODE":"US","MEAN_MOTION_DDOT":"0.0000000000000","GP_ID":"212129437","MEAN_ANOMALY":"307.1510","FILE":"3564914","CENTER_NAME":"EARTH"},{"GP_ID":"212130189","COUNTRY_CODE":"US","ECCENTRICITY":"0.00022830","MEAN_MOTION_DDOT":"0.0000000000000","FILE":"3564914","CENTER_NAME":"EARTH","MEAN_ANOMALY":"310.9659","OBJECT_ID":"2021-104G","REF_FRAME":"TEME","SITE":"AFETR","LAUNCH_DATE":"2021-11-13","EPHEMERIS_TYPE":"0","INCLINATION":"53.2156","CLASSIFICATION_TYPE":"U","PERIAPSIS":"538.161","EPOCH":"2022-09-09T08:12:33.114816","TIME_SYSTEM":"UTC","RA_OF_ASC_NODE":"203.3582","RCS_SIZE":"LARGE","ARG_OF_PERICENTER":"49.1531","DECAY_DATE":null,"MEAN_ELEMENT_THEORY":"SGP4","MEAN_MOTION":"15.08841639","NORAD_CAT_ID":"49414","MEAN_MOTION_DOT":"0.00001854","SEMIMAJOR_AXIS":"6917.875","REV_AT_EPOCH":"4579","TLE_LINE2":"2 49414  53.2156 203.3582 0002283  49.1531 310.9659 15.08841639 45790","PERIOD":"95.437","TLE_LINE1":"1 49414U 21104G   22252.34204994  .00001854  00000-0  13459-3 0  9991","APOAPSIS":"541.320","OBJECT_NAME":"STARLINK-3146","OBJECT_TYPE":"PAYLOAD","ELEMENT_SET_NO":"999","BSTAR":"0.00013459000000"}];
